OBJECT_NAME,OBJECT_ID,EPOCH,MEAN_MOTION,ECCENTRICITY,INCLINATION,RA_OF_ASC_NODE,ARG_OF_PERICENTER,MEAN_ANOMALY,EPHEMERIS_TYPE,CLASSIFICATION_TYPE,NORAD_CAT_ID,ELEMENT_SET_NO,REV_AT_EPOCH,BSTAR,MEAN_MOTION_DOT,MEAN_MOTION_DDOT
ONEWEB-0522,2022-138AD,2026-06-13T10:15:32.399712,13.19724563,.00016981,87.9176,305.7058,97.4437,262.6889,0,U,54140,999,17631,.20663717E-3,.96E-6,0
ONEWEB-0523,2022-138AE,2026-06-13T13:04:05.443680,13.20771647,.00027985,87.9193,275.1661,100.8760,259.2688,0,U,54141,999,17882,.10941246E-3,.57E-6,0
ONEWEB-0524,2022-138AF,2026-06-13T12:49:33.001536,13.20771578,.00025287,87.9193,275.1651,118.6501,241.4887,0,U,54142,999,17882,.14963517E-3,.74E-6,0
ONEWEB-0525,2022-138AG,2026-06-13T08:53:38.867136,13.19725163,.00015116,87.9173,305.7249,104.1308,255.9993,0,U,54143,999,17632,.11911986E-4,.18E-6,0
ONEWEB-0526,2022-138AH,2026-06-13T15:08:56.713344,13.19726138,.00017674,87.9174,305.6733,102.0026,258.1305,0,U,54144,999,17633,.64753568E-4,.39E-6,0
ONEWEB-0529,2022-138AJ,2026-06-13T15:13:29.521344,13.19724470,.00016296,87.9165,305.6820,101.1367,258.9949,0,U,54145,999,17635,.76488827E-4,.44E-6,0
ONEWEB-0531,2022-138AK,2026-06-13T14:19:15.540960,13.20772522,.00027997,87.9190,275.1507,106.3533,253.7908,0,U,54146,999,17883,.79309339E-4,.45E-6,0
ONEWEB-0535,2022-138AL,2026-06-13T08:44:32.948736,13.19724777,.0002174,87.9174,305.7200,96.2640,263.8741,0,U,54147,999,17633,.55919197E-4,.35E-6,0
ONEWEB-0536,2022-138AM,2026-06-13T13:59:51.072864,13.20771232,.00029182,87.9180,275.1762,110.3559,249.7888,0,U,54148,999,17882,.58989188E-4,.37E-6,0
ONEWEB-0527,2022-166A,2026-06-13T16:00:01.999584,13.21806792,.00019812,87.9257,244.6973,100.9303,126.5553,0,U,54642,999,518,.83857391E-1,.3477E-3,0
ONEWEB-0528,2022-166B,2026-06-13T14:52:26.161536,13.21767060,.00021858,87.9255,244.7095,108.3412,251.7960,0,U,54643,999,17107,.27575425E-1,.11406E-3,0
ONEWEB-0539,2022-166C,2026-06-13T13:57:56.649888,13.21826325,.00019937,87.9261,244.6884,92.8040,267.3322,0,U,54644,999,17106,-.86580594E-4,-.23E-6,0
ONEWEB-0540,2022-166D,2026-06-13T14:07:49.581120,13.21826228,.00020375,87.9253,244.7175,95.2471,264.8896,0,U,54645,999,17105,-.24390711E-3,-.88E-6,0
ONEWEB-0542,2022-166E,2026-06-13T14:12:28.108800,13.21825599,.00020288,87.9262,244.6850,90.0661,270.0705,0,U,54646,999,17106,-.7058326E-3,-.278E-5,0
ONEWEB-0545,2022-166F,2026-06-13T15:10:35.612832,13.21828152,.00022023,87.9255,244.6891,85.8232,274.3154,0,U,54647,999,17103,.84967906E-4,.48E-6,0
ONEWEB-0580,2022-166G,2026-06-13T14:34:15.496320,13.21827493,.00022907,87.9253,244.6937,90.3432,269.7965,0,U,54648,999,17107,.8335036E-5,.16E-6,0
ONEWEB-0582,2022-166H,2026-06-13T11:56:49.811136,13.21826584,.00022305,87.9254,244.7081,87.5215,272.6175,0,U,54649,999,17103,.25697945E-3,.119E-5,0
ONEWEB-0583,2022-166J,2026-06-13T14:02:46.654080,13.21826782,.00020506,87.9253,244.7142,95.7135,264.4233,0,U,54650,999,17105,-.2160213E-3,-.76E-6,0
ONEWEB-0584,2022-166K,2026-06-13T14:31:50.516256,13.21825038,.00021288,87.9252,244.6957,96.4067,263.7310,0,U,54651,999,17104,-.12222487E-3,-.37E-6,0
ONEWEB-0585,2022-166L,2026-06-13T15:05:46.343040,13.21825765,.00020004,87.9256,244.6779,103.4401,256.6956,0,U,54652,999,17105,.36935986E-4,.28E-6,0
ONEWEB-0586,2022-166M,2026-06-13T11:47:06.916992,13.21824467,.00020263,87.9255,244.7309,93.9303,266.2062,0,U,54653,999,17103,.1976236E-3,.95E-6,0
ONEWEB-0587,2022-166N,2026-06-13T12:01:38.863200,13.21824155,.00019927,87.9265,244.7021,108.9469,251.1881,0,U,54654,999,17119,.17254086E-3,.84E-6,0
ONEWEB-0589,2022-166P,2026-06-13T15:20:16.791936,13.21824107,.00025141,87.9252,244.6874,80.8028,279.3391,0,U,54655,999,17107,.86770313E-4,.49E-6,0
ONEWEB-0590,2022-166Q,2026-06-13T12:18:25.657344,13.21827419,.00024903,87.9262,244.7023,101.7710,258.3704,0,U,54656,999,17104,.91481835E-4,.51E-6,0
ONEWEB-0591,2022-166R,2026-06-13T14:24:35.792928,13.21825772,.0002097,87.9253,244.6997,98.8945,261.2426,0,U,54657,999,17108,-.22091033E-3,-.78E-6,0
ONEWEB-0592,2022-166S,2026-06-13T14:29:25.384992,13.21827843,.00020351,87.9262,244.6769,98.5634,261.5731,0,U,54658,999,17096,.42318591E-4,.3E-6,0
ONEWEB-0593,2022-166T,2026-06-13T15:00:53.645760,13.21825584,.00019295,87.9255,244.6845,94.4867,265.6488,0,U,54659,999,17107,-.5449491E-3,-.212E-5,0
ONEWEB-0594,2022-166U,2026-06-13T11:51:58.972320,13.21819634,.00019217,87.9254,244.7271,102.2719,257.8630,0,U,54660,999,17107,.32082799E-2,.1338E-4,0
ONEWEB-0595,2022-166V,2026-06-13T14:56:03.899040,13.21826592,.00021004,87.9262,244.6818,106.0055,254.1311,0,U,54661,999,17106,-.3957125E-5,.11E-6,0
ONEWEB-0596,2022-166W,2026-06-13T14:19:44.561856,13.21827379,.00020543,87.9256,244.6986,101.8351,258.3013,0,U,54662,999,17106,.16900916E-3,.83E-6,0
