ONEWEB-0522             
1 54140U 22138AD  26164.42745833  .00000096  00000+0  20664-3 0  9990
2 54140  87.9176 305.7058 0001698  97.4437 262.6889 13.19724563176310
ONEWEB-0523             
1 54141U 22138AE  26164.54450745  .00000057  00000+0  10941-3 0  9993
2 54141  87.9193 275.1661 0002798 100.8760 259.2688 13.20771647178824
ONEWEB-0524             
1 54142U 22138AF  26164.53440974  .00000074  00000+0  14964-3 0  9994
2 54142  87.9193 275.1651 0002528 118.6501 241.4887 13.20771578178822
ONEWEB-0525             
1 54143U 22138AG  26164.37058874  .00000018  00000+0  11912-4 0  9990
2 54143  87.9173 305.7249 0001511 104.1308 255.9993 13.19725163176328
ONEWEB-0526             
1 54144U 22138AH  26164.63121196  .00000039  00000+0  64754-4 0  9993
2 54144  87.9174 305.6733 0001767 102.0026 258.1305 13.19726138176330
ONEWEB-0529             
1 54145U 22138AJ  26164.63436946  .00000044  00000+0  76489-4 0  9990
2 54145  87.9165 305.6820 0001629 101.1367 258.9949 13.19724470176354
ONEWEB-0531             
1 54146U 22138AK  26164.59670765  .00000045  00000+0  79309-4 0  9990
2 54146  87.9190 275.1507 0002799 106.3533 253.7908 13.20772522178833
ONEWEB-0535             
1 54147U 22138AL  26164.36427024  .00000035  00000+0  55919-4 0  9994
2 54147  87.9174 305.7200 0002174  96.2640 263.8741 13.19724777176336
ONEWEB-0536             
1 54148U 22138AM  26164.58323001  .00000037  00000+0  58989-4 0  9991
2 54148  87.9180 275.1762 0002918 110.3559 249.7888 13.20771232178821
ONEWEB-0527             
1 54642U 22166A   26164.66668981  .00034770  00000+0  83857-1 0  9999
2 54642  87.9257 244.6973 0001981 100.9303 126.5553 13.21806792  5181
ONEWEB-0528             
1 54643U 22166B   26164.61974724  .00011406  00000+0  27575-1 0  9996
2 54643  87.9255 244.7095 0002185 108.3412 251.7960 13.21767060171075
ONEWEB-0539             
1 54644U 22166C   26164.58190567 -.00000023  00000+0 -86581-4 0  9998
2 54644  87.9261 244.6884 0001993  92.8040 267.3322 13.21826325171062
ONEWEB-0540             
1 54645U 22166D   26164.58876830 -.00000088  00000+0 -24391-3 0  9994
2 54645  87.9253 244.7175 0002037  95.2471 264.8896 13.21826228171052
ONEWEB-0542             
1 54646U 22166E   26164.59199200 -.00000278  00000+0 -70583-3 0  9990
2 54646  87.9262 244.6850 0002028  90.0661 270.0705 13.21825599171065
ONEWEB-0545             
1 54647U 22166F   26164.63235663  .00000048  00000+0  84968-4 0  9996
2 54647  87.9255 244.6891 0002202  85.8232 274.3154 13.21828152171033
ONEWEB-0580             
1 54648U 22166G   26164.60712380  .00000016  00000+0  83350-5 0  9990
2 54648  87.9253 244.6937 0002290  90.3432 269.7965 13.21827493171072
ONEWEB-0582             
1 54649U 22166H   26164.49779874  .00000119  00000+0  25698-3 0  9992
2 54649  87.9254 244.7081 0002230  87.5215 272.6175 13.21826584171038
ONEWEB-0583             
1 54650U 22166J   26164.58526220 -.00000076  00000+0 -21602-3 0  9994
2 54650  87.9253 244.7142 0002050  95.7135 264.4233 13.21826782171055
ONEWEB-0584             
1 54651U 22166K   26164.60544579 -.00000037  00000+0 -12222-3 0  9990
2 54651  87.9252 244.6957 0002128  96.4067 263.7310 13.21825038171046
ONEWEB-0585             
1 54652U 22166L   26164.62900860  .00000028  00000+0  36936-4 0  9999
2 54652  87.9256 244.6779 0002000 103.4401 256.6956 13.21825765171058
ONEWEB-0586             
1 54653U 22166M   26164.49105228  .00000095  00000+0  19762-3 0  9991
2 54653  87.9255 244.7309 0002026  93.9303 266.2062 13.21824467171031
ONEWEB-0587             
1 54654U 22166N   26164.50114425  .00000084  00000+0  17254-3 0  9995
2 54654  87.9265 244.7021 0001992 108.9469 251.1881 13.21824155171198
ONEWEB-0589             
1 54655U 22166P   26164.63908324  .00000049  00000+0  86770-4 0  9990
2 54655  87.9252 244.6874 0002514  80.8028 279.3391 13.21824107171072
ONEWEB-0590             
1 54656U 22166Q   26164.51279696  .00000051  00000+0  91482-4 0  9990
2 54656  87.9262 244.7023 0002490 101.7710 258.3704 13.21827419171046
ONEWEB-0591             
1 54657U 22166R   26164.60041427 -.00000078  00000+0 -22091-3 0  9990
2 54657  87.9253 244.6997 0002097  98.8945 261.2426 13.21825772171083
ONEWEB-0592             
1 54658U 22166S   26164.60376603  .00000030  00000+0  42319-4 0  9990
2 54658  87.9262 244.6769 0002035  98.5634 261.5731 13.21827843170964
ONEWEB-0593             
1 54659U 22166T   26164.62562090 -.00000212  00000+0 -54495-3 0  9991
2 54659  87.9255 244.6845 0001929  94.4867 265.6488 13.21825584171073
ONEWEB-0594             
1 54660U 22166U   26164.49443255  .00001338  00000+0  32083-2 0  9995
2 54660  87.9254 244.7271 0001921 102.2719 257.8630 13.21819634171075
ONEWEB-0595             
1 54661U 22166V   26164.62226735  .00000011  00000+0 -39571-5 0  9993
2 54661  87.9262 244.6818 0002100 106.0055 254.1311 13.21826592171062
ONEWEB-0596             
1 54662U 22166W   26164.59704354  .00000083  00000+0  16901-3 0  9996
2 54662  87.9256 244.6986 0002054 101.8351 258.3013 13.21827379171061
